COLIBRI-S (RS67S)       
1 61746U 24199M   26115.91339678  .00025535  00000+0  53161-3 0  9998
2 61746  97.3079 349.3564 0010847 108.4294 251.8135 15.45531869129333
HORS 3 (RS81S)          
1 61753U 24199U   26115.90317879  .00036116  00000+0  61059-3 0  9996
2 61753  97.3058 350.8234 0009268 110.9663 249.2582 15.51466776129442
HORS 4 (RS82S)          
1 61754U 24199V   26115.87333049  .00048190  00000+0  71416-3 0  9993
2 61754  97.3016 351.7013 0008558 107.3100 252.9091 15.55071581129502
HORIZON (RS59S)         
1 61757U 24199Y   26115.70730672  .00352495  48050-4  11733-2 0  9994
2 61757  97.2913 357.1980 0005833 119.3708 240.8149 15.90220913129844
ARCTICSAT 1 (RS74S)     
1 61762U 24199AD  26114.92720727  .00070579  00000+0  42412-3 0  9990
2 61762  97.2986 355.3724 0006853 100.0740 260.1300 15.77517111129659
SIT-2086                
1 61764U 24199AF  26115.88427120  .00026818  00000+0  47976-3 0  9996
2 61764  97.3040 351.4488 0008562  99.0736 261.1485 15.49932050126326
HYPERVIEW 1G (RS66S)    
1 61772U 24199AP  26115.92115904  .00096429  00000+0  97287-3 0  9999
2 61772  97.2986 353.4435 0009450 107.5233 252.7060 15.65003182126475
ALTAIR (RS65S)          
1 61779U 24199AW  26115.88192250  .00010993  00000+0  31479-3 0  9993
2 61779  97.3108 345.5965 0014551 129.4665 230.7869 15.35994376129083
ASRTU-1 (AO-123)        
1 61781U 24199AY  26115.89297792  .00009104  00000+0  27040-3 0  9995
2 61781  97.3080 345.0443 0015447 132.1234 228.1325 15.34887982125907
TUSUR GO (RS78S)        
1 61782U 24199AZ  26115.90565629  .00634265  17261-3  15477-2 0  9998
2 61782  97.2876 356.5491 0005888 136.5064 223.6678 15.96185836126681
SAMSAT-IONOSPHERE (RS7*)
1 61784U 24199BB  26115.88226059  .00045004  00000+0  71176-3 0  9993
2 61784  97.3039 350.6939 0011496 112.2200 248.0274 15.53258375129433
RTU MIREA 1 (RS51S)     
1 61785U 24199BC  26115.87716071  .00053696  00000+0  77386-3 0  9996
2 61785  97.3029 351.2914 0011575 110.0929 250.1573 15.55773220126329
TEVEL2-4                
1 63213U 25052D   26115.65942447  .00018614  00000+0  59027-3 0  9990
2 63213  97.3959  12.0228 0001035 356.9651   3.1585 15.32748517 62067
TEVEL2-5                
1 63214U 25052E   26115.67448406  .00018075  00000+0  57589-3 0  9991
2 63214  97.3959  11.9997 0001066 354.8398   5.2832 15.32603298 62062
TEVEL2-6                
1 63215U 25052F   26115.68553657  .00017711  00000+0  56504-3 0  9990
2 63215  97.3965  11.9959 0001110 353.8719   6.2509 15.32565052 62061
TEVEL2-1                
1 63217U 25052H   26115.69747080  .00017197  00000+0  55685-3 0  9995
2 63217  97.3936  11.6914 0001777   5.2417 354.8843 15.32093725 62056
