[{"OBJECT_NAME":"COLIBRI-S (RS67S)","OBJECT_ID":"2024-199M","EPOCH":"2026-04-25T21:55:17.481792","MEAN_MOTION":15.45531869,"ECCENTRICITY":0.00108479,"INCLINATION":97.3079,"RA_OF_ASC_NODE":349.3564,"ARG_OF_PERICENTER":108.4294,"MEAN_ANOMALY":251.8135,"EPHEMERIS_TYPE":0,"CLASSIFICATION_TYPE":"U","NORAD_CAT_ID":61746,"ELEMENT_SET_NO":999,"REV_AT_EPOCH":12933,"BSTAR":0.00053160627,"MEAN_MOTION_DOT":0.00025535,"MEAN_MOTION_DDOT":0},{"OBJECT_NAME":"HORS 3 (RS81S)","OBJECT_ID":"2024-199U","EPOCH":"2026-04-25T21:40:34.647456","MEAN_MOTION":15.51466776,"ECCENTRICITY":0.00092686,"INCLINATION":97.3058,"RA_OF_ASC_NODE":350.8234,"ARG_OF_PERICENTER":110.9663,"MEAN_ANOMALY":249.2582,"EPHEMERIS_TYPE":0,"CLASSIFICATION_TYPE":"U","NORAD_CAT_ID":61753,"ELEMENT_SET_NO":999,"REV_AT_EPOCH":12944,"BSTAR":0.00061059474,"MEAN_MOTION_DOT":0.00036116,"MEAN_MOTION_DDOT":0},{"OBJECT_NAME":"HORS 4 (RS82S)","OBJECT_ID":"2024-199V","EPOCH":"2026-04-25T20:57:35.754336","MEAN_MOTION":15.55071581,"ECCENTRICITY":0.00085587,"INCLINATION":97.3016,"RA_OF_ASC_NODE":351.7013,"ARG_OF_PERICENTER":107.31,"MEAN_ANOMALY":252.9091,"EPHEMERIS_TYPE":0,"CLASSIFICATION_TYPE":"U","NORAD_CAT_ID":61754,"ELEMENT_SET_NO":999,"REV_AT_EPOCH":12950,"BSTAR":0.00071415897,"MEAN_MOTION_DOT":0.0004819,"MEAN_MOTION_DDOT":0},{"OBJECT_NAME":"HORIZON (RS59S)","OBJECT_ID":"2024-199Y","EPOCH":"2026-04-25T16:58:31.300608","MEAN_MOTION":15.90220913,"ECCENTRICITY":0.00058331,"INCLINATION":97.2913,"RA_OF_ASC_NODE":357.198,"ARG_OF_PERICENTER":119.3708,"MEAN_ANOMALY":240.8149,"EPHEMERIS_TYPE":0,"CLASSIFICATION_TYPE":"U","NORAD_CAT_ID":61757,"ELEMENT_SET_NO":999,"REV_AT_EPOCH":12984,"BSTAR":0.0011733407,"MEAN_MOTION_DOT":0.00352495,"MEAN_MOTION_DDOT":4.8050222e-5},{"OBJECT_NAME":"ARCTICSAT 1 (RS74S)","OBJECT_ID":"2024-199AD","EPOCH":"2026-04-24T22:15:10.708128","MEAN_MOTION":15.77517111,"ECCENTRICITY":0.00068537,"INCLINATION":97.2986,"RA_OF_ASC_NODE":355.3724,"ARG_OF_PERICENTER":100.074,"MEAN_ANOMALY":260.13,"EPHEMERIS_TYPE":0,"CLASSIFICATION_TYPE":"U","NORAD_CAT_ID":61762,"ELEMENT_SET_NO":999,"REV_AT_EPOCH":12965,"BSTAR":0.00042412045,"MEAN_MOTION_DOT":0.00070579,"MEAN_MOTION_DDOT":0},{"OBJECT_NAME":"SIT-2086","OBJECT_ID":"2024-199AF","EPOCH":"2026-04-25T21:13:21.031680","MEAN_MOTION":15.4993205,"ECCENTRICITY":0.00085626,"INCLINATION":97.304,"RA_OF_ASC_NODE":351.4488,"ARG_OF_PERICENTER":99.0736,"MEAN_ANOMALY":261.1485,"EPHEMERIS_TYPE":0,"CLASSIFICATION_TYPE":"U","NORAD_CAT_ID":61764,"ELEMENT_SET_NO":999,"REV_AT_EPOCH":12632,"BSTAR":0.00047975705,"MEAN_MOTION_DOT":0.00026818,"MEAN_MOTION_DDOT":0},{"OBJECT_NAME":"HYPERVIEW 1G (RS66S)","OBJECT_ID":"2024-199AP","EPOCH":"2026-04-25T22:06:28.141056","MEAN_MOTION":15.65003182,"ECCENTRICITY":0.00094508,"INCLINATION":97.2986,"RA_OF_ASC_NODE":353.4435,"ARG_OF_PERICENTER":107.5233,"MEAN_ANOMALY":252.706,"EPHEMERIS_TYPE":0,"CLASSIFICATION_TYPE":"U","NORAD_CAT_ID":61772,"ELEMENT_SET_NO":999,"REV_AT_EPOCH":12647,"BSTAR":0.00097286695,"MEAN_MOTION_DOT":0.00096429,"MEAN_MOTION_DDOT":0},{"OBJECT_NAME":"ALTAIR (RS65S)","OBJECT_ID":"2024-199AW","EPOCH":"2026-04-25T21:09:58.104000","MEAN_MOTION":15.35994376,"ECCENTRICITY":0.00145513,"INCLINATION":97.3108,"RA_OF_ASC_NODE":345.5965,"ARG_OF_PERICENTER":129.4665,"MEAN_ANOMALY":230.7869,"EPHEMERIS_TYPE":0,"CLASSIFICATION_TYPE":"U","NORAD_CAT_ID":61779,"ELEMENT_SET_NO":999,"REV_AT_EPOCH":12908,"BSTAR":0.0003147916,"MEAN_MOTION_DOT":0.00010993,"MEAN_MOTION_DDOT":0},{"OBJECT_NAME":"ASRTU-1 (AO-123)","OBJECT_ID":"2024-199AY","EPOCH":"2026-04-25T21:25:53.292288","MEAN_MOTION":15.34887982,"ECCENTRICITY":0.00154476,"INCLINATION":97.308,"RA_OF_ASC_NODE":345.0443,"ARG_OF_PERICENTER":132.1234,"MEAN_ANOMALY":228.1325,"EPHEMERIS_TYPE":0,"CLASSIFICATION_TYPE":"U","NORAD_CAT_ID":61781,"ELEMENT_SET_NO":999,"REV_AT_EPOCH":12590,"BSTAR":0.0002704014,"MEAN_MOTION_DOT":9.104e-5,"MEAN_MOTION_DDOT":0},{"OBJECT_NAME":"TUSUR GO (RS78S)","OBJECT_ID":"2024-199AZ","EPOCH":"2026-04-25T21:44:08.703456","MEAN_MOTION":15.96185836,"ECCENTRICITY":0.00058884,"INCLINATION":97.2876,"RA_OF_ASC_NODE":356.5491,"ARG_OF_PERICENTER":136.5064,"MEAN_ANOMALY":223.6678,"EPHEMERIS_TYPE":0,"CLASSIFICATION_TYPE":"U","NORAD_CAT_ID":61782,"ELEMENT_SET_NO":999,"REV_AT_EPOCH":12668,"BSTAR":0.0015477291,"MEAN_MOTION_DOT":0.00634265,"MEAN_MOTION_DDOT":0.00017261465},{"OBJECT_NAME":"SAMSAT-IONOSPHERE (RS75S)","OBJECT_ID":"2024-199BB","EPOCH":"2026-04-25T21:10:27.314976","MEAN_MOTION":15.53258375,"ECCENTRICITY":0.00114963,"INCLINATION":97.3039,"RA_OF_ASC_NODE":350.6939,"ARG_OF_PERICENTER":112.22,"MEAN_ANOMALY":248.0274,"EPHEMERIS_TYPE":0,"CLASSIFICATION_TYPE":"U","NORAD_CAT_ID":61784,"ELEMENT_SET_NO":999,"REV_AT_EPOCH":12943,"BSTAR":0.00071175731,"MEAN_MOTION_DOT":0.00045004,"MEAN_MOTION_DDOT":0},{"OBJECT_NAME":"RTU MIREA 1 (RS51S)","OBJECT_ID":"2024-199BC","EPOCH":"2026-04-25T21:03:06.685344","MEAN_MOTION":15.5577322,"ECCENTRICITY":0.00115758,"INCLINATION":97.3029,"RA_OF_ASC_NODE":351.2914,"ARG_OF_PERICENTER":110.0929,"MEAN_ANOMALY":250.1573,"EPHEMERIS_TYPE":0,"CLASSIFICATION_TYPE":"U","NORAD_CAT_ID":61785,"ELEMENT_SET_NO":999,"REV_AT_EPOCH":12632,"BSTAR":0.00077386424,"MEAN_MOTION_DOT":0.00053696,"MEAN_MOTION_DDOT":0},{"OBJECT_NAME":"TEVEL2-4","OBJECT_ID":"2025-052D","EPOCH":"2026-04-25T15:49:34.274208","MEAN_MOTION":15.32748517,"ECCENTRICITY":0.00010352,"INCLINATION":97.3959,"RA_OF_ASC_NODE":12.0228,"ARG_OF_PERICENTER":356.9651,"MEAN_ANOMALY":3.1585,"EPHEMERIS_TYPE":0,"CLASSIFICATION_TYPE":"U","NORAD_CAT_ID":63213,"ELEMENT_SET_NO":999,"REV_AT_EPOCH":6206,"BSTAR":0.00059027005,"MEAN_MOTION_DOT":0.00018614,"MEAN_MOTION_DDOT":0},{"OBJECT_NAME":"TEVEL2-5","OBJECT_ID":"2025-052E","EPOCH":"2026-04-25T16:11:15.422784","MEAN_MOTION":15.32603298,"ECCENTRICITY":0.00010666,"INCLINATION":97.3959,"RA_OF_ASC_NODE":11.9997,"ARG_OF_PERICENTER":354.8398,"MEAN_ANOMALY":5.2832,"EPHEMERIS_TYPE":0,"CLASSIFICATION_TYPE":"U","NORAD_CAT_ID":63214,"ELEMENT_SET_NO":999,"REV_AT_EPOCH":6206,"BSTAR":0.00057588562,"MEAN_MOTION_DOT":0.00018075,"MEAN_MOTION_DDOT":0},{"OBJECT_NAME":"TEVEL2-6","OBJECT_ID":"2025-052F","EPOCH":"2026-04-25T16:27:10.359648","MEAN_MOTION":15.32565052,"ECCENTRICITY":0.00011108,"INCLINATION":97.3965,"RA_OF_ASC_NODE":11.9959,"ARG_OF_PERICENTER":353.8719,"MEAN_ANOMALY":6.2509,"EPHEMERIS_TYPE":0,"CLASSIFICATION_TYPE":"U","NORAD_CAT_ID":63215,"ELEMENT_SET_NO":999,"REV_AT_EPOCH":6206,"BSTAR":0.00056503513,"MEAN_MOTION_DOT":0.00017711,"MEAN_MOTION_DDOT":0},{"OBJECT_NAME":"TEVEL2-1","OBJECT_ID":"2025-052H","EPOCH":"2026-04-25T16:44:21.477120","MEAN_MOTION":15.32093725,"ECCENTRICITY":0.00017777,"INCLINATION":97.3936,"RA_OF_ASC_NODE":11.6914,"ARG_OF_PERICENTER":5.2417,"MEAN_ANOMALY":354.8843,"EPHEMERIS_TYPE":0,"CLASSIFICATION_TYPE":"U","NORAD_CAT_ID":63217,"ELEMENT_SET_NO":999,"REV_AT_EPOCH":6205,"BSTAR":0.00055684776,"MEAN_MOTION_DOT":0.00017197,"MEAN_MOTION_DDOT":0}]
